{
  "type": "FeatureCollection",
  "features": [
    {
      "type": "Feature",
      "properties": {
        "norad_id": 35671,
        "name": "COSMOS 2251 DEB",
        "group": "cosmos-2251-debris",
        "lat": -30.78138837332607,
        "lon": -117.07785905159041,
        "alt_km": 707.9822801158161,
        "timestamp": "2025-12-26T17:24:55.116037+00:00",
        "meta_object_name": "COSMOS 2251 DEB",
        "meta_object_id": "1993-036APN",
        "meta_epoch": "2025-12-25T14:36:47.670048",
        "meta_mean_motion": 14.48368538,
        "meta_eccentricity": 0.0041274,
        "meta_inclination": 74.0177,
        "meta_ra_of_asc_node": 55.1855,
        "meta_arg_of_pericenter": 227.0867,
        "meta_mean_anomaly": 284.5499,
        "meta_ephemeris_type": 0,
        "meta_classification_type": "U",
        "meta_norad_cat_id": 35671,
        "meta_element_set_no": 999,
        "meta_rev_at_epoch": 86949,
        "meta_bstar": 0.00019838,
        "meta_mean_motion_dot": 7.22e-06,
        "meta_mean_motion_ddot": 0,
        "tle_line1": "1 35671U 93036APN 25359.60888507  .00000722  00000+0  19838-3 0  9991",
        "tle_line2": "2 35671  74.0177  55.1855 0041274 227.0867 284.5499 14.48368538869496"
      },
      "geometry": {
        "type": "Point",
        "coordinates": [
          -117.07785905159041,
          -30.78138837332607
        ]
      }
    },
    {
      "type": "Feature",
      "properties": {
        "norad_id": 35674,
        "name": "COSMOS 2251 DEB",
        "group": "cosmos-2251-debris",
        "lat": 26.990172422528286,
        "lon": -61.53150387847464,
        "alt_km": 671.8179545268104,
        "timestamp": "2025-12-26T17:24:55.116047+00:00",
        "meta_object_name": "COSMOS 2251 DEB",
        "meta_object_id": "1993-036APR",
        "meta_epoch": "2025-12-24T19:03:54.003456",
        "meta_mean_motion": 14.54389628,
        "meta_eccentricity": 0.00963199,
        "meta_inclination": 74.0626,
        "meta_ra_of_asc_node": 293.7457,
        "meta_arg_of_pericenter": 335.7924,
        "meta_mean_anomaly": 23.8726,
        "meta_ephemeris_type": 0,
        "meta_classification_type": "U",
        "meta_norad_cat_id": 35674,
        "meta_element_set_no": 999,
        "meta_rev_at_epoch": 86286,
        "meta_bstar": 0.0018628076,
        "meta_mean_motion_dot": 8.404e-05,
        "meta_mean_motion_ddot": 0,
        "tle_line1": "1 35674U 93036APR 25358.79437504  .00008404  00000+0  18628-2 0  9990",
        "tle_line2": "2 35674  74.0626 293.7457 0096319 335.7924  23.8726 14.54389628862868"
      },
      "geometry": {
        "type": "Point",
        "coordinates": [
          -61.53150387847464,
          26.990172422528286
        ]
      }
    },
    {
      "type": "Feature",
      "properties": {
        "norad_id": 35701,
        "name": "COSMOS 2251 DEB",
        "group": "cosmos-2251-debris",
        "lat": -56.73634605112322,
        "lon": 124.79287080230235,
        "alt_km": 1053.140708206447,
        "timestamp": "2025-12-26T17:24:55.116057+00:00",
        "meta_object_name": "COSMOS 2251 DEB",
        "meta_object_id": "1993-036APW",
        "meta_epoch": "2025-12-23T03:05:16.939392",
        "meta_mean_motion": 13.80906206,
        "meta_eccentricity": 0.0288749,
        "meta_inclination": 74.0066,
        "meta_ra_of_asc_node": 284.9129,
        "meta_arg_of_pericenter": 131.8115,
        "meta_mean_anomaly": 230.8064,
        "meta_ephemeris_type": 0,
        "meta_classification_type": "U",
        "meta_norad_cat_id": 35701,
        "meta_element_set_no": 999,
        "meta_rev_at_epoch": 62302,
        "meta_bstar": 0.0013474955,
        "meta_mean_motion_dot": 1.927e-05,
        "meta_mean_motion_ddot": 0,
        "tle_line1": "1 35701U 93036APW 25357.12866828  .00001927  00000+0  13475-2 0  9990",
        "tle_line2": "2 35701  74.0066 284.9129 0288749 131.8115 230.8064 13.80906206623025"
      },
      "geometry": {
        "type": "Point",
        "coordinates": [
          124.79287080230235,
          -56.73634605112322
        ]
      }
    },
    {
      "type": "Feature",
      "properties": {
        "norad_id": 35703,
        "name": "COSMOS 2251 DEB",
        "group": "cosmos-2251-debris",
        "lat": 4.135224035369413,
        "lon": 15.955581854103496,
        "alt_km": 587.1767334316664,
        "timestamp": "2025-12-26T17:24:55.116067+00:00",
        "meta_object_name": "COSMOS 2251 DEB",
        "meta_object_id": "1993-036APY",
        "meta_epoch": "2025-12-24T09:00:55.190592",
        "meta_mean_motion": 14.90483201,
        "meta_eccentricity": 0.00644143,
        "meta_inclination": 74.0417,
        "meta_ra_of_asc_node": 19.4725,
        "meta_arg_of_pericenter": 85.5638,
        "meta_mean_anomaly": 275.2899,
        "meta_ephemeris_type": 0,
        "meta_classification_type": "U",
        "meta_norad_cat_id": 35703,
        "meta_element_set_no": 999,
        "meta_rev_at_epoch": 66789,
        "meta_bstar": 0.00063398121,
        "meta_mean_motion_dot": 6.404e-05,
        "meta_mean_motion_ddot": 0,
        "tle_line1": "1 35703U 93036APY 25358.37563878  .00006404  00000+0  63398-3 0  9994",
        "tle_line2": "2 35703  74.0417  19.4725 0064414  85.5638 275.2899 14.90483201667895"
      },
      "geometry": {
        "type": "Point",
        "coordinates": [
          15.955581854103496,
          4.135224035369413
        ]
      }
    },
    {
      "type": "Feature",
      "properties": {
        "norad_id": 35705,
        "name": "COSMOS 2251 DEB",
        "group": "cosmos-2251-debris",
        "lat": -35.80882839752078,
        "lon": 97.26689484187015,
        "alt_km": 658.3454187244888,
        "timestamp": "2025-12-26T17:24:55.116077+00:00",
        "meta_object_name": "COSMOS 2251 DEB",
        "meta_object_id": "1993-036AQA",
        "meta_epoch": "2025-12-21T00:37:19.012800",
        "meta_mean_motion": 14.72474593,
        "meta_eccentricity": 0.00333276,
        "meta_inclination": 74.2752,
        "meta_ra_of_asc_node": 119.9236,
        "meta_arg_of_pericenter": 64.9174,
        "meta_mean_anomaly": 295.5452,
        "meta_ephemeris_type": 0,
        "meta_classification_type": "U",
        "meta_norad_cat_id": 35705,
        "meta_element_set_no": 999,
        "meta_rev_at_epoch": 86048,
        "meta_bstar": 0.0022061245,
        "meta_mean_motion_dot": 0.00014123,
        "meta_mean_motion_ddot": 0,
        "tle_line1": "1 35705U 93036AQA 25355.02591450  .00014123  00000+0  22061-2 0  9990",
        "tle_line2": "2 35705  74.2752 119.9236 0033327  64.9174 295.5452 14.72474593860483"
      },
      "geometry": {
        "type": "Point",
        "coordinates": [
          97.26689484187015,
          -35.80882839752078
        ]
      }
    },
    {
      "type": "Feature",
      "properties": {
        "norad_id": 35706,
        "name": "COSMOS 2251 DEB",
        "group": "cosmos-2251-debris",
        "lat": -73.34956955620383,
        "lon": -65.19199871528481,
        "alt_km": 1272.3807647806234,
        "timestamp": "2025-12-26T17:24:55.116087+00:00",
        "meta_object_name": "COSMOS 2251 DEB",
        "meta_object_id": "1993-036AQB",
        "meta_epoch": "2025-12-21T09:35:04.200288",
        "meta_mean_motion": 13.65940195,
        "meta_eccentricity": 0.03399329,
        "meta_inclination": 73.889,
        "meta_ra_of_asc_node": 48.5024,
        "meta_arg_of_pericenter": 96.6435,
        "meta_mean_anomaly": 267.3485,
        "meta_ephemeris_type": 0,
        "meta_classification_type": "U",
        "meta_norad_cat_id": 35706,
        "meta_element_set_no": 999,
        "meta_rev_at_epoch": 62180,
        "meta_bstar": 0.00062720687,
        "meta_mean_motion_dot": 7.46e-06,
        "meta_mean_motion_ddot": 0,
        "tle_line1": "1 35706U 93036AQB 25355.39935417  .00000746  00000+0  62721-3 0  9990",
        "tle_line2": "2 35706  73.8890  48.5024 0339932  96.6435 267.3485 13.65940195621808"
      },
      "geometry": {
        "type": "Point",
        "coordinates": [
          -65.19199871528481,
          -73.34956955620383
        ]
      }
    },
    {
      "type": "Feature",
      "properties": {
        "norad_id": 35711,
        "name": "COSMOS 2251 DEB",
        "group": "cosmos-2251-debris",
        "lat": -40.18755100358574,
        "lon": 27.607483274040316,
        "alt_km": 665.2680331076117,
        "timestamp": "2025-12-26T17:24:55.116097+00:00",
        "meta_object_name": "COSMOS 2251 DEB",
        "meta_object_id": "1993-036AQG",
        "meta_epoch": "2025-12-26T06:33:16.354080",
        "meta_mean_motion": 14.63833962,
        "meta_eccentricity": 0.00856089,
        "meta_inclination": 74.0438,
        "meta_ra_of_asc_node": 194.4903,
        "meta_arg_of_pericenter": 292.4398,
        "meta_mean_anomaly": 66.7719,
        "meta_ephemeris_type": 0,
        "meta_classification_type": "U",
        "meta_norad_cat_id": 35711,
        "meta_element_set_no": 999,
        "meta_rev_at_epoch": 87969,
        "meta_bstar": 0.00022438699,
        "meta_mean_motion_dot": 1.201e-05,
        "meta_mean_motion_ddot": 0,
        "tle_line1": "1 35711U 93036AQG 25360.27310595  .00001201  00000+0  22439-3 0  9992",
        "tle_line2": "2 35711  74.0438 194.4903 0085608 292.4398  66.7719 14.63833962879699"
      },
      "geometry": {
        "type": "Point",
        "coordinates": [
          27.607483274040316,
          -40.18755100358574
        ]
      }
    }
  ]
}